{"fetched_at":"2026-03-29T16:36:15Z","count":15609,"tles":[{"name":"LEMUR-2-MARIO-SOUSA","line1":"1 67365U 26004C   26087.90344354  .00006305  00000+0  69542-3 0  9996","line2":"2 67365  97.8001  87.7357 0009821  53.2091 307.0025 14.87799043 11350","category":"Other"}]}